ALOS-2                  
1 39766U 14029A   26193.02805944  .00000805  00000+0  11465-3 0  9992
2 39766  97.9229 289.8370 0001549  98.6500 261.4887 14.79469002655256
KAZEOSAT 2              
1 40010U 14033A   26192.95104951 -.00000128  00000+0 -90762-5 0  9991
2 40010  97.5405  31.2540 0007197 232.2694 127.7871 14.85496180652635
HODOYOSHI-4             
1 40011U 14033B   26192.97970486  .00000632  00000+0  73996-4 0  9995
2 40011  97.5459  16.6074 0022443 220.8916 139.0618 14.88183026652499
DEIMOS-2                
1 40013U 14033D   26192.90129124  .00000093  00000+0  13916-4 0  9992
2 40013  97.5807  66.5191 0000926  86.0615 274.0712 14.93789314641415
HODOYOSHI-3             
1 40015U 14033F   26192.90713409  .00000537  00000+0  67894-4 0  9996
2 40015  97.6441 354.9565 0031297 273.2549  86.5086 14.85433515651299
SPOT 7                  
1 40053U 14034A   26192.97442670  .00000127  00000+0  35061-4 0  9991
2 40053  98.0623 254.8258 0001562  96.8863 263.2516 14.60978875640752
SKYSAT-B                
1 40072U 14037D   26192.87034045  .00000667  00000+0  79264-4 0  9999
2 40072  98.3853 153.2453 0005309 183.3680 176.7500 14.88087332649638
WORLDVIEW-3 (WV-3)      
1 40115U 14048A   26192.89561615  .00000396  00000+0  52645-4 0  9992
2 40115  97.8558 267.3867 0001049 160.9080 199.2174 14.85061085645570
GAOFEN-2                
1 40118U 14049A   26192.97346554 -.00000295  00000+0 -31291-4 0  9992
2 40118  98.0103 257.1556 0008044 143.6500 216.5260 14.80923421642900
YAOGAN-21               
1 40143U 14053A   26192.94023661  .00004366  00000+0  16861-3 0  9999
2 40143  97.1471 232.1165 0008206  19.7294 340.4261 15.26731521658733
YAOGAN-22               
1 40275U 14063A   26192.52202174 -.00000019  00000+0  74490-4 0  9993
2 40275 100.7756 344.2025 0006805 132.8949 227.2735 13.15531599563016
ASNARO                  
1 40298U 14070A   26192.98404787  .00004143  00000+0  19652-3 0  9999
2 40298  97.3451 268.4314 0006926  96.9476 263.2547 15.19798679647778
YAOGAN-24               
1 40310U 14072A   26192.95916676  .00000718  00000+0  11155-3 0  9992
2 40310  98.1512 330.5080 0014315 179.8486 180.2730 14.76117425627376
CBERS 4                 
1 40336U 14079A   26192.99045024 -.00000099  00000+0 -19845-4 0  9990
2 40336  98.3525 249.0421 0000930  52.2032 307.9238 14.35514914607516
YAOGAN-26               
1 40362U 14088A   26192.95850715  .00010472  00000+0  19960-3 0  9997
2 40362  97.0648 192.6037 0002358 359.2532   0.8716 15.48350776641533
SMAP                    
1 40376U 15003A   26192.96870223  .00000219  00000+0  51458-4 0  9994
2 40376  98.1282 199.7127 0001573  95.9057 264.2325 14.63387520611246
KOMPSAT-3A              
1 40536U 15014A   26192.95864515  .00021982  00000+0  30321-3 0  9995
2 40536  97.6886 186.1558 0056543  86.9800 273.7921 15.55289172625663
SENTINEL-2A             
1 40697U 15028A   26192.96993436 -.00000056  00000+0 -48930-5 0  9992
2 40697  98.5681 267.4688 0001273  94.8735 265.2594 14.30813289577275
GAOFEN-8                
1 40701U 15030A   26192.93571461  .00015724  00000+0  31404-3 0  9990
2 40701  97.6898  27.8077 0009958 105.7752 254.4596 15.46867734615277
CARBONITE 1 (CBNT-1)    
1 40718U 15032D   26192.93445669  .00001707  00000+0  21265-3 0  9990
2 40718  97.6520   9.9673 0013530 208.2112 151.8371 14.83665193593013
YAOGAN-27               
1 40878U 15040A   26192.96338117 -.00000503  00000+0 -12130-2 0  9993
2 40878 100.1163 178.2717 0008456 152.4506 207.7057 13.16069598520924
GAOFEN-9 01             
1 40894U 15047A   26192.96144604  .00000556  00000+0  74292-4 0  9999
2 40894  97.6270 227.5296 0028626  60.6270 299.7798 14.82931360583864
YAOGAN-28               
1 41026U 15064A   26192.95277712  .00004122  00000+0  15457-3 0  9992
2 41026  97.3099 330.7187 0012065 102.9942 257.2646 15.27733538594466
YAOGAN-29               
1 41038U 15069A   26193.00589797 -.00000389  00000+0 -41182-4 0  9994
2 41038  98.0028 221.6765 0001015  16.7496 343.3750 14.83103296574305
KENT RIDGE 1            
1 41167U 15077B   26192.91586751  .00002707  00000+0  79609-4 0  9991
2 41167  14.9799  82.0545 0008276 228.7650 131.1959 15.23273349584877
GAOFEN-4                
1 41194U 15083A   26192.92057102 -.00000331  00000+0  00000+0 0  9998
2 41194   0.4175  83.8486 0004481 121.3118 161.7458  1.00268546 38778
JASON-3                 
1 41240U 16002A   26192.93480077 -.00000039  00000+0  93544-4 0  9999
2 41240  66.0417  73.8073 0008213 271.2191  88.7887 12.87628459490430
SENTINEL-3A             
1 41335U 16011A   26192.90227847  .00000038  00000+0  33781-4 0  9990
2 41335  98.6238 259.9296 0001382  91.2166 268.9173 14.26739165541588
ZIYUAN 3-02 (ZY 3-02)   
1 41556U 16033A   26192.98688103  .00003111  00000+0  14137-3 0  9991
2 41556  97.3832 268.2841 0013730 196.2804 163.7992 15.21414898561754
CARTOSAT-2C             
1 41599U 16040A   26192.95731998  .00002398  00000+0  11693-3 0  9994
2 41599  97.4479 252.5925 0009828  55.1836 305.0322 15.19249288557477
